DIWATA-2B               
1 43678U 18084H   25124.19049329  .00002968  00000+0  25547-3 0  9990
2 43678  98.1029 298.9354 0009396  51.2662 308.9397 14.98161724354934
ES'HAIL 2               
1 43700U 18090A   25123.93862437  .00000133  00000+0  00000+0 0  9992
2 43700   0.0181 262.3209 0001601 171.7443 151.7009  1.00270188 23572
FOX-1CLIFF (AO-95)      
1 43770U 18099N   25123.70780989  .00015685  00000+0  80553-3 0  9997
2 43770  97.4941 182.2138 0009902 348.3839  11.7164 15.16544452350960
ITASAT                  
1 43786U 18099AE  25123.89928683  .00009754  00000+0  56318-3 0  9991
2 43786  97.4594 179.0648 0013468 338.5352  21.5313 15.12453276350913
JY1SAT (JO-97)          
1 43803U 18099AX  25123.92610799  .00016322  00000+0  76047-3 0  9991
2 43803  97.4684 183.3481 0006048 267.9823  92.0720 15.19960338351207
UWE-4                   
1 43880U 18111E   25123.73871679  .00023996  00000+0  96692-3 0  9999
2 43880  97.5916  36.0813 0011625 351.5456   8.5583 15.24780717348014
DUCHIFAT-3              
1 44854U 19089C   25123.66003492  .00064931  00000+0  14020-2 0  9996
2 44854  36.9438 229.3956 0001384 323.3868  36.6793 15.43456511297305
TIANYAN 01              
1 44881U 19093C   25124.18776821  .00001656  00000+0  19768-3 0  9992
2 44881  97.7930 200.5983 0013589 357.3749   2.7393 14.85522832290671
RS-44 & BREEZE-KM R/B   
1 44909U 19096E   25124.04420113  .00000031  00000+0  79145-4 0  9993
2 44909  82.5207 251.5500 0217703  21.2985 339.7007 12.79740315250068
SALSAT                  
1 46495U 20068K   25123.87637984  .00011104  00000+0  48584-3 0  9997
2 46495  97.8589 100.2303 0009585 293.9914  66.0317 15.22202040252942
LEDSAT                  
1 49069U 21073D   25124.15431885  .00070984  00000+0  10117-2 0  9999
2 49069  97.3902 204.3008 0011822 204.5252 155.5441 15.56002689205768
XW-3 (CAS-9)            
1 50466U 21131B   25124.23206518  .00000984  00000+0  32155-3 0  9999
2 50466  98.5086 213.7673 0003212 233.0264 127.0630 14.40767147176213
STRATOSAT-TK 1 (RS52S)  
1 57167U 23091B   25124.23061914  .00046565  00000+0  12597-2 0  9992
2 57167  97.5557 186.6090 0009925  88.9338 271.3044 15.37511941102427
UMKA 1 (RS40S)          
1 57172U 23091G   25124.21775527  .00008418  00000+0  45380-3 0  9990
2 57172  97.5610 179.7948 0016298 100.6503 259.6566 15.14919820101975
