[
  {
    "OBJECT_NAME": "DIWATA-2B",
    "OBJECT_ID": "2018-084H",
    "EPOCH": "2025-05-04T04:34:18.620256",
    "MEAN_MOTION": 14.98161724,
    "ECCENTRICITY": 0.0009396,
    "INCLINATION": 98.1029,
    "RA_OF_ASC_NODE": 298.9354,
    "ARG_OF_PERICENTER": 51.2662,
    "MEAN_ANOMALY": 308.9397,
    "EPHEMERIS_TYPE": 0,
    "CLASSIFICATION_TYPE": "U",
    "NORAD_CAT_ID": 43678,
    "ELEMENT_SET_NO": 999,
    "REV_AT_EPOCH": 35493,
    "BSTAR": 0.00025547,
    "MEAN_MOTION_DOT": 2.968e-05,
    "MEAN_MOTION_DDOT": 0
  },
  {
    "OBJECT_NAME": "ES'HAIL 2",
    "OBJECT_ID": "2018-090A",
    "EPOCH": "2025-05-03T22:31:37.145568",
    "MEAN_MOTION": 1.00270188,
    "ECCENTRICITY": 0.0001601,
    "INCLINATION": 0.0181,
    "RA_OF_ASC_NODE": 262.3209,
    "ARG_OF_PERICENTER": 171.7443,
    "MEAN_ANOMALY": 151.7009,
    "EPHEMERIS_TYPE": 0,
    "CLASSIFICATION_TYPE": "U",
    "NORAD_CAT_ID": 43700,
    "ELEMENT_SET_NO": 999,
    "REV_AT_EPOCH": 2357,
    "BSTAR": 0,
    "MEAN_MOTION_DOT": 1.33e-06,
    "MEAN_MOTION_DDOT": 0
  },
  {
    "OBJECT_NAME": "FOX-1CLIFF (AO-95)",
    "OBJECT_ID": "2018-099N",
    "EPOCH": "2025-05-03T16:59:14.774496",
    "MEAN_MOTION": 15.16544452,
    "ECCENTRICITY": 0.0009902,
    "INCLINATION": 97.4941,
    "RA_OF_ASC_NODE": 182.2138,
    "ARG_OF_PERICENTER": 348.3839,
    "MEAN_ANOMALY": 11.7164,
    "EPHEMERIS_TYPE": 0,
    "CLASSIFICATION_TYPE": "U",
    "NORAD_CAT_ID": 43770,
    "ELEMENT_SET_NO": 999,
    "REV_AT_EPOCH": 35096,
    "BSTAR": 0.00080553,
    "MEAN_MOTION_DOT": 0.00015685,
    "MEAN_MOTION_DDOT": 0
  },
  {
    "OBJECT_NAME": "ITASAT",
    "OBJECT_ID": "2018-099AE",
    "EPOCH": "2025-05-03T21:34:58.382112",
    "MEAN_MOTION": 15.12453276,
    "ECCENTRICITY": 0.0013468,
    "INCLINATION": 97.4594,
    "RA_OF_ASC_NODE": 179.0648,
    "ARG_OF_PERICENTER": 338.5352,
    "MEAN_ANOMALY": 21.5313,
    "EPHEMERIS_TYPE": 0,
    "CLASSIFICATION_TYPE": "U",
    "NORAD_CAT_ID": 43786,
    "ELEMENT_SET_NO": 999,
    "REV_AT_EPOCH": 35091,
    "BSTAR": 0.00056318,
    "MEAN_MOTION_DOT": 9.754e-05,
    "MEAN_MOTION_DDOT": 0
  },
  {
    "OBJECT_NAME": "JY1SAT (JO-97)",
    "OBJECT_ID": "2018-099AX",
    "EPOCH": "2025-05-03T22:13:35.730336",
    "MEAN_MOTION": 15.19960338,
    "ECCENTRICITY": 0.0006048,
    "INCLINATION": 97.4684,
    "RA_OF_ASC_NODE": 183.3481,
    "ARG_OF_PERICENTER": 267.9823,
    "MEAN_ANOMALY": 92.072,
    "EPHEMERIS_TYPE": 0,
    "CLASSIFICATION_TYPE": "U",
    "NORAD_CAT_ID": 43803,
    "ELEMENT_SET_NO": 999,
    "REV_AT_EPOCH": 35120,
    "BSTAR": 0.00076047,
    "MEAN_MOTION_DOT": 0.00016322,
    "MEAN_MOTION_DDOT": 0
  },
  {
    "OBJECT_NAME": "UWE-4",
    "OBJECT_ID": "2018-111E",
    "EPOCH": "2025-05-03T17:43:45.130656",
    "MEAN_MOTION": 15.24780717,
    "ECCENTRICITY": 0.0011625,
    "INCLINATION": 97.5916,
    "RA_OF_ASC_NODE": 36.0813,
    "ARG_OF_PERICENTER": 351.5456,
    "MEAN_ANOMALY": 8.5583,
    "EPHEMERIS_TYPE": 0,
    "CLASSIFICATION_TYPE": "U",
    "NORAD_CAT_ID": 43880,
    "ELEMENT_SET_NO": 999,
    "REV_AT_EPOCH": 34801,
    "BSTAR": 0.00096692,
    "MEAN_MOTION_DOT": 0.00023996,
    "MEAN_MOTION_DDOT": 0
  },
  {
    "OBJECT_NAME": "DUCHIFAT-3",
    "OBJECT_ID": "2019-089C",
    "EPOCH": "2025-05-03T15:50:27.017088",
    "MEAN_MOTION": 15.43456511,
    "ECCENTRICITY": 0.0001384,
    "INCLINATION": 36.9438,
    "RA_OF_ASC_NODE": 229.3956,
    "ARG_OF_PERICENTER": 323.3868,
    "MEAN_ANOMALY": 36.6793,
    "EPHEMERIS_TYPE": 0,
    "CLASSIFICATION_TYPE": "U",
    "NORAD_CAT_ID": 44854,
    "ELEMENT_SET_NO": 999,
    "REV_AT_EPOCH": 29730,
    "BSTAR": 0.001402,
    "MEAN_MOTION_DOT": 0.00064931,
    "MEAN_MOTION_DDOT": 0
  },
  {
    "OBJECT_NAME": "TIANYAN 01",
    "OBJECT_ID": "2019-093C",
    "EPOCH": "2025-05-04T04:30:23.173344",
    "MEAN_MOTION": 14.85522832,
    "ECCENTRICITY": 0.0013589,
    "INCLINATION": 97.793,
    "RA_OF_ASC_NODE": 200.5983,
    "ARG_OF_PERICENTER": 357.3749,
    "MEAN_ANOMALY": 2.7393,
    "EPHEMERIS_TYPE": 0,
    "CLASSIFICATION_TYPE": "U",
    "NORAD_CAT_ID": 44881,
    "ELEMENT_SET_NO": 999,
    "REV_AT_EPOCH": 29067,
    "BSTAR": 0.00019768,
    "MEAN_MOTION_DOT": 1.656e-05,
    "MEAN_MOTION_DDOT": 0
  },
  {
    "OBJECT_NAME": "RS-44 & BREEZE-KM R/B",
    "OBJECT_ID": "2019-096E",
    "EPOCH": "2025-05-04T01:03:38.977632",
    "MEAN_MOTION": 12.79740315,
    "ECCENTRICITY": 0.0217703,
    "INCLINATION": 82.5207,
    "RA_OF_ASC_NODE": 251.55,
    "ARG_OF_PERICENTER": 21.2985,
    "MEAN_ANOMALY": 339.7007,
    "EPHEMERIS_TYPE": 0,
    "CLASSIFICATION_TYPE": "U",
    "NORAD_CAT_ID": 44909,
    "ELEMENT_SET_NO": 999,
    "REV_AT_EPOCH": 25006,
    "BSTAR": 7.9145e-05,
    "MEAN_MOTION_DOT": 3.1e-07,
    "MEAN_MOTION_DDOT": 0
  },
  {
    "OBJECT_NAME": "SALSAT",
    "OBJECT_ID": "2020-068K",
    "EPOCH": "2025-05-03T21:01:59.218176",
    "MEAN_MOTION": 15.2220204,
    "ECCENTRICITY": 0.0009585,
    "INCLINATION": 97.8589,
    "RA_OF_ASC_NODE": 100.2303,
    "ARG_OF_PERICENTER": 293.9914,
    "MEAN_ANOMALY": 66.0317,
    "EPHEMERIS_TYPE": 0,
    "CLASSIFICATION_TYPE": "U",
    "NORAD_CAT_ID": 46495,
    "ELEMENT_SET_NO": 999,
    "REV_AT_EPOCH": 25294,
    "BSTAR": 0.00048584,
    "MEAN_MOTION_DOT": 0.00011104,
    "MEAN_MOTION_DDOT": 0
  },
  {
    "OBJECT_NAME": "LEDSAT",
    "OBJECT_ID": "2021-073D",
    "EPOCH": "2025-05-04T03:42:13.148640",
    "MEAN_MOTION": 15.56002689,
    "ECCENTRICITY": 0.0011822,
    "INCLINATION": 97.3902,
    "RA_OF_ASC_NODE": 204.3008,
    "ARG_OF_PERICENTER": 204.5252,
    "MEAN_ANOMALY": 155.5441,
    "EPHEMERIS_TYPE": 0,
    "CLASSIFICATION_TYPE": "U",
    "NORAD_CAT_ID": 49069,
    "ELEMENT_SET_NO": 999,
    "REV_AT_EPOCH": 20576,
    "BSTAR": 0.0010117,
    "MEAN_MOTION_DOT": 0.00070984,
    "MEAN_MOTION_DDOT": 0
  },
  {
    "OBJECT_NAME": "XW-3 (CAS-9)",
    "OBJECT_ID": "2021-131B",
    "EPOCH": "2025-05-04T05:34:10.431552",
    "MEAN_MOTION": 14.40767147,
    "ECCENTRICITY": 0.0003212,
    "INCLINATION": 98.5086,
    "RA_OF_ASC_NODE": 213.7673,
    "ARG_OF_PERICENTER": 233.0264,
    "MEAN_ANOMALY": 127.063,
    "EPHEMERIS_TYPE": 0,
    "CLASSIFICATION_TYPE": "U",
    "NORAD_CAT_ID": 50466,
    "ELEMENT_SET_NO": 999,
    "REV_AT_EPOCH": 17621,
    "BSTAR": 0.00032155,
    "MEAN_MOTION_DOT": 9.84e-06,
    "MEAN_MOTION_DDOT": 0
  },
  {
    "OBJECT_NAME": "STRATOSAT-TK 1 (RS52S)",
    "OBJECT_ID": "2023-091B",
    "EPOCH": "2025-05-04T05:32:05.493696",
    "MEAN_MOTION": 15.37511941,
    "ECCENTRICITY": 0.0009925,
    "INCLINATION": 97.5557,
    "RA_OF_ASC_NODE": 186.609,
    "ARG_OF_PERICENTER": 88.9338,
    "MEAN_ANOMALY": 271.3044,
    "EPHEMERIS_TYPE": 0,
    "CLASSIFICATION_TYPE": "U",
    "NORAD_CAT_ID": 57167,
    "ELEMENT_SET_NO": 999,
    "REV_AT_EPOCH": 10242,
    "BSTAR": 0.0012597,
    "MEAN_MOTION_DOT": 0.00046565,
    "MEAN_MOTION_DDOT": 0
  },
  {
    "OBJECT_NAME": "UMKA 1 (RS40S)",
    "OBJECT_ID": "2023-091G",
    "EPOCH": "2025-05-04T05:13:34.055328",
    "MEAN_MOTION": 15.1491982,
    "ECCENTRICITY": 0.0016298,
    "INCLINATION": 97.561,
    "RA_OF_ASC_NODE": 179.7948,
    "ARG_OF_PERICENTER": 100.6503,
    "MEAN_ANOMALY": 259.6566,
    "EPHEMERIS_TYPE": 0,
    "CLASSIFICATION_TYPE": "U",
    "NORAD_CAT_ID": 57172,
    "ELEMENT_SET_NO": 999,
    "REV_AT_EPOCH": 10197,
    "BSTAR": 0.0004538,
    "MEAN_MOTION_DOT": 8.418e-05,
    "MEAN_MOTION_DDOT": 0
  }
]